{
    "links": {
        "self": "http://www.neowsapp.com/rest/v1/neo/3330682?api_key=iIulBulltgU6a56xZRHN4H3l9WmuAYTsLGpBGhQ2"
    },
    "id": "3330682",
    "neo_reference_id": "3330682",
    "name": "(2006 HS30)",
    "designation": "2006 HS30",
    "nasa_jpl_url": "http://ssd.jpl.nasa.gov/sbdb.cgi?sstr=3330682",
    "absolute_magnitude_h": 28.0,
    "estimated_diameter": {
        "kilometers": {
            "estimated_diameter_min": 0.0066765941,
            "estimated_diameter_max": 0.0149293183
        },
        "meters": {
            "estimated_diameter_min": 6.676594135,
            "estimated_diameter_max": 14.9293183439
        },
        "miles": {
            "estimated_diameter_min": 0.004148642,
            "estimated_diameter_max": 0.0092766455
        },
        "feet": {
            "estimated_diameter_min": 21.9048371017,
            "estimated_diameter_max": 48.9807047955
        }
    },
    "is_potentially_hazardous_asteroid": false,
    "close_approach_data": [
        {
            "close_approach_date": "1937-03-15",
            "close_approach_date_full": "1937-Mar-15 22:48",
            "epoch_date_close_approach": -1034989920000,
            "relative_velocity": {
                "kilometers_per_second": "18.6442403174",
                "kilometers_per_hour": "67119.2651427098",
                "miles_per_hour": "41705.3011660355"
            },
            "miss_distance": {
                "astronomical": "0.3249930197",
                "lunar": "126.4222846633",
                "kilometers": "48618263.511988039",
                "miles": "30209988.0905873782"
            },
            "orbiting_body": "Earth"
        },
        {
            "close_approach_date": "2006-04-26",
            "close_approach_date_full": "2006-Apr-26 00:02",
            "epoch_date_close_approach": 1146009720000,
            "relative_velocity": {
                "kilometers_per_second": "8.2498408589",
                "kilometers_per_hour": "29699.427091933",
                "miles_per_hour": "18454.0690172069"
            },
            "miss_distance": {
                "astronomical": "0.0144505894",
                "lunar": "5.6212792766",
                "kilometers": "2161777.394484578",
                "miles": "1343266.1848520564"
            },
            "orbiting_body": "Earth"
        }
    ],
    "orbital_data": {
        "orbit_id": "6",
        "orbit_determination_date": "2017-04-06 09:08:45",
        "first_observation_date": "2006-04-24",
        "last_observation_date": "2006-04-26",
        "data_arc_in_days": 2,
        "observations_used": 36,
        "orbit_uncertainty": "8",
        "minimum_orbit_intersection": ".0100789",
        "jupiter_tisserand_invariant": "3.295",
        "epoch_osculation": "2453850.5",
        "eccentricity": ".5753247827299853",
        "semi_major_axis": "2.375916145845011",
        "inclination": "2.324082220355629",
        "ascending_node_longitude": "208.4934773595739",
        "orbital_period": "1337.657996647169",
        "perihelion_distance": "1.008992705452066",
        "perihelion_argument": "20.39238442736804",
        "aphelion_distance": "3.742839586237957",
        "perihelion_time": "2453862.245757572095",
        "mean_anomaly": "356.8388984803643",
        "mean_motion": ".2691270869701656",
        "equinox": "J2000",
        "orbit_class": {
            "orbit_class_type": "APO",
            "orbit_class_description": "Near-Earth asteroid orbits which cross the Earth’s orbit similar to that of 1862 Apollo",
            "orbit_class_range": "a (semi-major axis) > 1.0 AU; q (perihelion) < 1.017 AU"
        }
    },
    "is_sentry_object": false
}